{"type": "FeatureCollection", "features": [ {"type": "Feature", "properties": {"norad_id": 34909, "name": "COSMOS 2251 DEB", "group": "cosmos-2251-debris", "lat": -43.476598315198096, "lon": 62.35698562943877, "alt_km": 652.5604549749769, "timestamp": "2025-12-11T22:43:47.666116+00:00", "meta": {"OBJECT_NAME": "COSMOS 2251 DEB", "OBJECT_ID": "1993-036ADE", "EPOCH": "2025-12-11T13:11:23.878752", "MEAN_MOTION": 14.77818431, "ECCENTRICITY": 0.00846332, "INCLINATION": 74.0139, "RA_OF_ASC_NODE": 78.9108, "ARG_OF_PERICENTER": 215.0537, "MEAN_ANOMALY": 144.5052, "EPHEMERIS_TYPE": 0, "CLASSIFICATION_TYPE": "U", "NORAD_CAT_ID": 34909, "ELEMENT_SET_NO": 999, "REV_AT_EPOCH": 66834, "BSTAR": 0.0010024697, "MEAN_MOTION_DOT": 7.618e-05, "MEAN_MOTION_DDOT": 0}, "tle": {"line1": "1 34909U 93036ADE 25345.54958193  .00007618  00000+0  10025-2 0  9990", "line2": "2 34909  74.0139  78.9108 0084633 215.0537 144.5052 14.77818431668343"}}, "geometry": {"type": "Point", "coordinates": [62.35698562943877, -43.476598315198096]}}, {"type": "Feature", "properties": {"norad_id": 34910, "name": "COSMOS 2251 DEB", "group": "cosmos-2251-debris", "lat": -42.408252081355, "lon": 87.36103454566164, "alt_km": 1131.310668903926, "timestamp": "2025-12-11T22:43:47.666126+00:00", "meta": {"OBJECT_NAME": "COSMOS 2251 DEB", "OBJECT_ID": "1993-036ADF", "EPOCH": "2025-12-04T03:27:09.174816", "MEAN_MOTION": 13.3765034, "ECCENTRICITY": 0.04679235, "INCLINATION": 73.8763, "RA_OF_ASC_NODE": 114.9889, "ARG_OF_PERICENTER": 235.2756, "MEAN_ANOMALY": 311.3517, "EPHEMERIS_TYPE": 0, "CLASSIFICATION_TYPE": "U", "NORAD_CAT_ID": 34910, "ELEMENT_SET_NO": 999, "REV_AT_EPOCH": 81409, "BSTAR": 0.0018660381, "MEAN_MOTION_DOT": 1.821e-05, "MEAN_MOTION_DDOT": 0}, "tle": {"line1": "1 34910U 93036ADF 25338.14385619  .00001821  00000+0  18660-2 0  9990", "line2": "2 34910  73.8763 114.9889 0467923 235.2756 311.3517 13.37650340814099"}}, "geometry": {"type": "Point", "coordinates": [87.36103454566164, -42.408252081355]}}, {"type": "Feature", "properties": {"norad_id": 34911, "name": "COSMOS 2251 DEB", "group": "cosmos-2251-debris", "lat": 69.6037220310038, "lon": 15.937220433689022, "alt_km": 688.6223082030483, "timestamp": "2025-12-11T22:43:47.666137+00:00", "meta": {"OBJECT_NAME": "COSMOS 2251 DEB", "OBJECT_ID": "1993-036ADG", "EPOCH": "2025-12-11T04:52:39.295776", "MEAN_MOTION": 14.59367739, "ECCENTRICITY": 0.00835313, "INCLINATION": 74.0413, "RA_OF_ASC_NODE": 247.6722, "ARG_OF_PERICENTER": 13.4623, "MEAN_ANOMALY": 142.0531, "EPHEMERIS_TYPE": 0, "CLASSIFICATION_TYPE": "U", "NORAD_CAT_ID": 34911, "ELEMENT_SET_NO": 999, "REV_AT_EPOCH": 88564, "BSTAR": 0.00024963004, "MEAN_MOTION_DOT": 1.208e-05, "MEAN_MOTION_DDOT": 0}, "tle": {"line1": "1 34911U 93036ADG 25345.20323259  .00001208  00000+0  24963-3 0  9991", "line2": "2 34911  74.0413 247.6722 0083531  13.4623 142.0531 14.59367739885649"}}, "geometry": {"type": "Point", "coordinates": [15.937220433689022, 69.6037220310038]}}, {"type": "Feature", "properties": {"norad_id": 34913, "name": "COSMOS 2251 DEB", "group": "cosmos-2251-debris", "lat": 4.181895523075643, "lon": 102.75117422266277, "alt_km": 789.6191261490376, "timestamp": "2025-12-11T22:43:47.666147+00:00", "meta": {"OBJECT_NAME": "COSMOS 2251 DEB", "OBJECT_ID": "1993-036ADJ", "EPOCH": "2025-12-10T13:00:18.152064", "MEAN_MOTION": 14.346364, "ECCENTRICITY": 0.0020264, "INCLINATION": 74.0283, "RA_OF_ASC_NODE": 286.5252, "ARG_OF_PERICENTER": 37.1811, "MEAN_ANOMALY": 83.6827, "EPHEMERIS_TYPE": 0, "CLASSIFICATION_TYPE": "U", "NORAD_CAT_ID": 34913, "ELEMENT_SET_NO": 999, "REV_AT_EPOCH": 65156, "BSTAR": 9.4175e-05, "MEAN_MOTION_DOT": 2.41e-06, "MEAN_MOTION_DDOT": 0}, "tle": {"line1": "1 34913U 93036ADJ 25344.54187676  .00000241  00000+0  94175-4 0  9999", "line2": "2 34913  74.0283 286.5252 0020264  37.1811  83.6827 14.34636400651569"}}, "geometry": {"type": "Point", "coordinates": [102.75117422266277, 4.181895523075643]}}, {"type": "Feature", "properties": {"norad_id": 34918, "name": "COSMOS 2251 DEB", "group": "cosmos-2251-debris", "lat": -61.369311407577115, "lon": 166.68345302636, "alt_km": 677.0290091113429, "timestamp": "2025-12-11T22:43:47.666157+00:00", "meta": {"OBJECT_NAME": "COSMOS 2251 DEB", "OBJECT_ID": "1993-036ADP", "EPOCH": "2025-12-10T06:27:09.237024", "MEAN_MOTION": 14.6111897, "ECCENTRICITY": 0.0033898, "INCLINATION": 74.0712, "RA_OF_ASC_NODE": 318.3402, "ARG_OF_PERICENTER": 286.4186, "MEAN_ANOMALY": 135.6409, "EPHEMERIS_TYPE": 0, "CLASSIFICATION_TYPE": "U", "NORAD_CAT_ID": 34918, "ELEMENT_SET_NO": 999, "REV_AT_EPOCH": 65300, "BSTAR": 0.0032517, "MEAN_MOTION_DOT": 0.00016131, "MEAN_MOTION_DDOT": 0}, "tle": {"line1": "1 34918U 93036ADP 25344.26885691  .00016131  00000+0  32517-2 0  9990", "line2": "2 34918  74.0712 318.3402 0033898 286.4186 135.6409 14.61118970653005"}}, "geometry": {"type": "Point", "coordinates": [166.68345302636, -61.369311407577115]}}, {"type": "Feature", "properties": {"norad_id": 34924, "name": "COSMOS 2251 DEB", "group": "cosmos-2251-debris", "lat": -61.53316748779096, "lon": -57.18345748452191, "alt_km": 686.6999371243783, "timestamp": "2025-12-11T22:43:47.666167+00:00", "meta": {"OBJECT_NAME": "COSMOS 2251 DEB", "OBJECT_ID": "1993-036ADV", "EPOCH": "2025-12-11T08:42:55.188000", "MEAN_MOTION": 14.60012856, "ECCENTRICITY": 0.00544798, "INCLINATION": 74.0407, "RA_OF_ASC_NODE": 92.0745, "ARG_OF_PERICENTER": 177.0908, "MEAN_ANOMALY": 240.42, "EPHEMERIS_TYPE": 0, "CLASSIFICATION_TYPE": "U", "NORAD_CAT_ID": 34924, "ELEMENT_SET_NO": 999, "REV_AT_EPOCH": 87703, "BSTAR": 0.0019678681, "MEAN_MOTION_DOT": 9.628e-05, "MEAN_MOTION_DDOT": 0}, "tle": {"line1": "1 34924U 93036ADV 25345.36313875  .00009628  00000+0  19679-2 0  9996", "line2": "2 34924  74.0407  92.0745 0054479 177.0908 240.4200 14.60012856877034"}}, "geometry": {"type": "Point", "coordinates": [-57.18345748452191, -61.53316748779096]}}, {"type": "Feature", "properties": {"norad_id": 34944, "name": "COSMOS 2251 DEB", "group": "cosmos-2251-debris", "lat": 53.36933499900658, "lon": 30.37370054458525, "alt_km": 720.163768993546, "timestamp": "2025-12-11T22:43:47.666177+00:00", "meta": {"OBJECT_NAME": "COSMOS 2251 DEB", "OBJECT_ID": "1993-036ADX", "EPOCH": "2025-12-07T09:30:46.029312", "MEAN_MOTION": 14.14167925, "ECCENTRICITY": 0.02195348, "INCLINATION": 73.7495, "RA_OF_ASC_NODE": 241.6775, "ARG_OF_PERICENTER": 90.2413, "MEAN_ANOMALY": 272.3884, "EPHEMERIS_TYPE": 0, "CLASSIFICATION_TYPE": "U", "NORAD_CAT_ID": 34944, "ELEMENT_SET_NO": 999, "REV_AT_EPOCH": 64007, "BSTAR": 0.00099492053, "MEAN_MOTION_DOT": 2.364e-05, "MEAN_MOTION_DDOT": 0}, "tle": {"line1": "1 34944U 93036ADX 25341.39636608  .00002364  00000+0  99492-3 0  9991", "line2": "2 34944  73.7495 241.6775 0219534  90.2413 272.3884 14.14167925640077"}}, "geometry": {"type": "Point", "coordinates": [30.37370054458525, 53.36933499900658]}}, {"type": "Feature", "properties": {"norad_id": 34946, "name": "COSMOS 2251 DEB", "group": "cosmos-2251-debris", "lat": 72.98941239494776, "lon": 53.09459364181254, "alt_km": 651.8610380481477, "timestamp": "2025-12-11T22:43:47.666187+00:00", "meta": {"OBJECT_NAME": "COSMOS 2251 DEB", "OBJECT_ID": "1993-036ADZ", "EPOCH": "2025-12-11T09:12:32.820480", "MEAN_MOTION": 14.61985522, "ECCENTRICITY": 0.0048688, "INCLINATION": 74.0237, "RA_OF_ASC_NODE": 344.7115, "ARG_OF_PERICENTER": 122.3418, "MEAN_ANOMALY": 238.2476, "EPHEMERIS_TYPE": 0, "CLASSIFICATION_TYPE": "U", "NORAD_CAT_ID": 34946, "ELEMENT_SET_NO": 999, "REV_AT_EPOCH": 88189, "BSTAR": 0.00095647955, "MEAN_MOTION_DOT": 4.849e-05, "MEAN_MOTION_DDOT": 0}, "tle": {"line1": "1 34946U 93036ADZ 25345.38371320  .00004849  00000+0  95648-3 0  9992", "line2": "2 34946  74.0237 344.7115 0048688 122.3418 238.2476 14.61985522881890"}}, "geometry": {"type": "Point", "coordinates": [53.09459364181254, 72.98941239494776]}}, {"type": "Feature", "properties": {"norad_id": 34949, "name": "COSMOS 2251 DEB", "group": "cosmos-2251-debris", "lat": -48.64199126930429, "lon": 92.20779166505469, "alt_km": 619.931335351881, "timestamp": "2025-12-11T22:43:47.666197+00:00", "meta": {"OBJECT_NAME": "COSMOS 2251 DEB", "OBJECT_ID": "1993-036AEC", "EPOCH": "2025-12-09T15:34:41.030400", "MEAN_MOTION": 14.73963573, "ECCENTRICITY": 0.008042, "INCLINATION": 74.0182, "RA_OF_ASC_NODE": 115.6941, "ARG_OF_PERICENTER": 261.6413, "MEAN_ANOMALY": 97.5637, "EPHEMERIS_TYPE": 0, "CLASSIFICATION_TYPE": "U", "NORAD_CAT_ID": 34949, "ELEMENT_SET_NO": 999, "REV_AT_EPOCH": 88316, "BSTAR": 0.00087029, "MEAN_MOTION_DOT": 5.989e-05, "MEAN_MOTION_DDOT": 0}, "tle": {"line1": "1 34949U 93036AEC 25343.64908600  .00005989  00000+0  87029-3 0  9999", "line2": "2 34949  74.0182 115.6941 0080420 261.6413  97.5637 14.73963573883168"}}, "geometry": {"type": "Point", "coordinates": [92.20779166505469, -48.64199126930429]}}, {"type": "Feature", "properties": {"norad_id": 34953, "name": "COSMOS 2251 DEB", "group": "cosmos-2251-debris", "lat": -59.00451598562823, "lon": 0.6794834370451325, "alt_km": 666.9171711518493, "timestamp": "2025-12-11T22:43:47.666207+00:00", "meta": {"OBJECT_NAME": "COSMOS 2251 DEB", "OBJECT_ID": "1993-036AEG", "EPOCH": "2025-12-11T13:53:44.512224", "MEAN_MOTION": 14.68942464, "ECCENTRICITY": 0.00579752, "INCLINATION": 74.0933, "RA_OF_ASC_NODE": 29.7286, "ARG_OF_PERICENTER": 22.1241, "MEAN_ANOMALY": 129.8119, "EPHEMERIS_TYPE": 0, "CLASSIFICATION_TYPE": "U", "NORAD_CAT_ID": 34953, "ELEMENT_SET_NO": 999, "REV_AT_EPOCH": 88111, "BSTAR": 0.0012309907, "MEAN_MOTION_DOT": 7.37e-05, "MEAN_MOTION_DDOT": 0}, "tle": {"line1": "1 34953U 93036AEG 25345.57898741  .00007370  00000+0  12310-2 0  9998", "line2": "2 34953  74.0933  29.7286 0057975  22.1241 129.8119 14.68942464881119"}}, "geometry": {"type": "Point", "coordinates": [0.6794834370451325, -59.00451598562823]}}]}